{
    "links": {
        "self": "http://www.neowsapp.com/rest/v1/neo/3697175?api_key=iIulBulltgU6a56xZRHN4H3l9WmuAYTsLGpBGhQ2"
    },
    "id": "3697175",
    "neo_reference_id": "3697175",
    "name": "(2014 WD70)",
    "designation": "2014 WD70",
    "nasa_jpl_url": "http://ssd.jpl.nasa.gov/sbdb.cgi?sstr=3697175",
    "absolute_magnitude_h": 22.9,
    "estimated_diameter": {
        "kilometers": {
            "estimated_diameter_min": 0.0699125232,
            "estimated_diameter_max": 0.1563291544
        },
        "meters": {
            "estimated_diameter_min": 69.9125232246,
            "estimated_diameter_max": 156.3291544087
        },
        "miles": {
            "estimated_diameter_min": 0.0434416145,
            "estimated_diameter_max": 0.097138403
        },
        "feet": {
            "estimated_diameter_min": 229.3718026961,
            "estimated_diameter_max": 512.8909429502
        }
    },
    "is_potentially_hazardous_asteroid": false,
    "close_approach_data": [
        {
            "close_approach_date": "2014-10-21",
            "close_approach_date_full": "2014-Oct-21 01:57",
            "epoch_date_close_approach": 1413856620000,
            "relative_velocity": {
                "kilometers_per_second": "5.8056742068",
                "kilometers_per_hour": "20900.42714457",
                "miles_per_hour": "12986.7126332468"
            },
            "miss_distance": {
                "astronomical": "0.2913541014",
                "lunar": "113.3367454446",
                "kilometers": "43585952.985204018",
                "miles": "27083055.3270427284"
            },
            "orbiting_body": "Earth"
        }
    ],
    "orbital_data": {
        "orbit_id": "3",
        "orbit_determination_date": "2017-04-06 08:37:22",
        "first_observation_date": "2014-11-17",
        "last_observation_date": "2014-11-21",
        "data_arc_in_days": 4,
        "observations_used": 14,
        "orbit_uncertainty": "8",
        "minimum_orbit_intersection": ".281117",
        "jupiter_tisserand_invariant": "3.949",
        "epoch_osculation": "2456979.5",
        "eccentricity": ".3096971486469502",
        "semi_major_axis": "1.829888459113012",
        "inclination": "11.33257074311526",
        "ascending_node_longitude": "43.07469263657311",
        "orbital_period": "904.1393145893985",
        "perihelion_distance": "1.263177220983751",
        "perihelion_argument": "330.187937207171",
        "aphelion_distance": "2.396599697242273",
        "perihelion_time": "2456930.070517080429",
        "mean_anomaly": "19.68127429468845",
        "mean_motion": ".398168727087693",
        "equinox": "J2000",
        "orbit_class": {
            "orbit_class_type": "AMO",
            "orbit_class_description": "Near-Earth asteroid orbits similar to that of 1221 Amor",
            "orbit_class_range": "1.017 AU < q (perihelion) < 1.3 AU"
        }
    },
    "is_sentry_object": false
}